STARLINK-31745          
1 60329U 24136A   26068.32100976 -.00000039  00000+0  10809-4 0  9990
2 60329  53.1612  77.6970 0001155  83.3957 276.7175 15.30192081 90816
STRIX-4                 
1 60352U 24137A   26068.65404516  .00020530  00000+0  71820-3 0  9996
2 60352  43.0134 129.8162 0016840   5.2738 354.8289 15.29026223 88766
